STARLINK-35798          
1 66292U 25247AD  25327.40715634  .00086169  00000+0  15375-2 0  9996
2 66292  53.1595 328.4924 0001449  94.8097 265.3078 15.49361107  4712
CMS-03 (GSAT-7R)        
1 66311U 25249B   25327.31846269 -.00000237  00000+0  00000+0 0  9998
2 66311   0.1906 271.6718 0004628 196.5767 162.4660  1.00272742   288
YAOGAN-46               
1 66313U 25250A   25323.71050301 -.00000009  00000+0  00000+0 0  9993
2 66313  20.0323 106.9378 0049242 131.7872 228.6447  5.35115933   968
SENTINEL-1D             
1 66315U 25251A   25327.39233236  .00000196  00000+0  50759-4 0  9991
2 66315  98.1938 332.6685 0001317 187.9322 172.1857 14.59749952  2714
QPS-SAR-14 (YACHIHOKO-I)
1 66316U 25252A   25327.26111071  .00005199  00000+0  45459-3 0  9999
2 66316  42.0028 182.1408 0007867  12.7910 347.3113 14.97411037  2610
ELECTRON R/B            
1 66317U 25252B   25326.50506123  .00776726  21078-3  15401-2 0  9998
2 66317  41.9926 176.2541 0179044 353.2458   6.5988 15.76456690  2611
ELECTRON KICK STAGE R/B 
1 66318U 25252C   25325.63915597  .01181360  76312-5  17685-2 0  9995
2 66318  41.9825 181.0244 0159832 138.8628 222.4404 15.84079469  2484
STARLINK-35442          
1 66319U 25253A   25327.50002315 -.02046671  00000+0 -21645-1 0  9993
2 66319  42.9998  97.5196 0001628 274.2442  64.7381 15.66606023  3936
STARLINK-34616          
1 66320U 25253B   25327.50002315 -.02038488  00000+0 -21552-1 0  9999
2 66320  42.9997  97.5140 0001580 278.4666  62.4347 15.66600358  4042
STARLINK-34615          
1 66321U 25253C   25327.50002315 -.02064085  00000+0 -21920-1 0  9991
2 66321  42.9998  97.5097 0001397 289.4323  53.5199 15.66537130  3887
